NORAD_CAT_ID,OBJECT_NAME,OBJECT_TYPE,EPOCH,MEAN_MOTION,ECCENTRICITY,INCLINATION,RA_OF_ASC_NODE,ARG_OF_PERICENTER,MEAN_ANOMALY,BSTAR,MEAN_MOTION_DOT,MEAN_MOTION_DDOT,TLE_LINE0,TLE_LINE1,TLE_LINE2,SEMIMAJOR_AXIS,PERIOD,APOGEE,PERIGEE,DECAYED
53723.0,STARLINK-4705,PAYLOAD,2024-01-05 13:41:09,15.08835788,0.0001397,53.2155,218.7073,83.1587,276.9564,8.2235e-05,1.021e-05,0.0,0 STARLINK-4705,1 53723U 22107Z   24005.57024887  .00001021  00000-0  82235-4 0  9992,2 53723  53.2155 218.7073 0001397  83.1587 276.9564 15.08835788 74073,6917.893,95.438,540.725,538.792,0.0
53723.0,STARLINK-4705,PAYLOAD,2024-01-05 21:38:05,15.08837172,0.0001398,53.2156,217.2203,81.1978,278.9173,8.3425e-05,1.04e-05,0.0,0 STARLINK-4705,1 53723U 22107Z   24005.90144900  .00001040  00000-0  83425-4 0  9991,2 53723  53.2156 217.2203 0001398  81.1978 278.9173 15.08837172 74725,6917.889,95.438,540.721,538.787,0.0
53723.0,STARLINK-4705,PAYLOAD,2024-01-05 23:13:28,15.08837835,0.0001398,53.2156,216.9229,81.4942,278.6208,8.6451e-05,1.088e-05,0.0,0 STARLINK-4705,1 53723U 22107Z   24005.96768863  .00001088  00000-0  86451-4 0  9991,2 53723  53.2156 216.9229 0001398  81.4942 278.6208 15.08837835 74736,6917.887,95.438,540.719,538.785,0.0
53723.0,STARLINK-4705,PAYLOAD,2024-01-06 19:53:29,15.08840296,0.0001538,53.2161,213.0582,75.795,284.3213,2.8231e-05,1.61e-06,0.0,0 STARLINK-4705,1 53723U 22107Z   24006.82881003  .00000161  00000-0  28231-4 0  9992,2 53723  53.2161 213.0582 0001538  75.7950 284.3213 15.08840296 74266,6917.879,95.438,540.808,538.681,0.0
53723.0,STARLINK-4705,PAYLOAD,2024-01-07 13:22:43,15.08842448,0.0001369,53.2157,209.7861,85.3752,274.7396,8.7709e-05,1.108e-05,0.0,0 STARLINK-4705,1 53723U 22107Z   24007.55744620  .00001108  00000-0  87709-4 0  9993,2 53723  53.2157 209.7861 0001369  85.3752 274.7396 15.08842448 74976,6917.873,95.437,540.685,538.791,0.0
53723.0,STARLINK-4705,PAYLOAD,2024-01-07 19:44:15,15.08843954,0.0001394,53.2158,208.5969,84.405,275.7101,9.7283e-05,1.261e-05,0.0,0 STARLINK-4705,1 53723U 22107Z   24007.82240486  .00001261  00000-0  97283-4 0  9992,2 53723  53.2158 208.5969 0001394  84.4050 275.7101 15.08843954 75016,6917.868,95.437,540.698,538.769,0.0
53723.0,STARLINK-4705,PAYLOAD,2024-01-08 13:13:30,15.08842747,0.0001466,53.2162,205.3262,84.3789,275.737,7.27e-05,8.69e-06,0.0,0 STARLINK-4705,1 53723U 22107Z   24008.55104584  .00000869  00000-0  72700-4 0  9991,2 53723  53.2162 205.3262 0001466  84.3789 275.7370 15.08842747 75129,6917.872,95.437,540.751,538.723,0.0
53723.0,STARLINK-4705,PAYLOAD,2024-01-08 19:35:02,15.08842224,0.0001388,53.2161,204.1359,98.9815,261.1334,6.1621e-05,6.93e-06,0.0,0 STARLINK-4705,1 53723U 22107Z   24008.81600511  .00000693  00000-0  61621-4 0  9996,2 53723  53.2161 204.1359 0001388  98.9815 261.1334 15.08842224 74562,6917.874,95.437,540.699,538.778,0.0
53723.0,STARLINK-4705,PAYLOAD,2024-01-09 13:04:17,15.08839726,0.0001381,53.2159,200.8654,100.2251,259.8897,1.6732e-05,-2.2e-07,0.0,0 STARLINK-4705,1 53723U 22107Z   24009.54464749 -.00000022  00000-0  16732-4 0  9998,2 53723  53.2159 200.8654 0001381 100.2251 259.8897 15.08839726 75274,6917.881,95.438,540.702,538.791,0.0
53723.0,STARLINK-4705,PAYLOAD,2024-01-09 19:25:50,15.0883989,0.0001383,53.2162,199.6765,101.7827,258.332,1.7028e-05,-1.7e-07,0.0,0 STARLINK-4705,1 53723U 22107Z   24009.80960695 -.00000017  00000-0  17028-4 0  9991,2 53723  53.2162 199.6765 0001383 101.7827 258.3320 15.08839890 75315,6917.881,95.438,540.702,538.789,0.0
53723.0,STARLINK-4705,PAYLOAD,2024-01-10 17:41:14,15.08836098,0.000138,53.2164,195.5141,100.453,259.6618,2.4335e-05,9.9e-07,0.0,0 STARLINK-4705,1 53723U 22107Z   24010.73697058  .00000099  00000-0  24335-4 0  9993,2 53723  53.2164 195.5141 0001380 100.4530 259.6618 15.08836098 74853,6917.892,95.438,540.712,538.803,0.0
53723.0,STARLINK-4705,PAYLOAD,2024-01-11 19:07:24,15.0883739,0.0001393,53.2169,190.7573,103.3725,256.7423,6.3162e-05,7.17e-06,0.0,0 STARLINK-4705,1 53723U 22107Z   24011.79681169  .00000717  00000-0  63162-4 0  9994,2 53723  53.2169 190.7573 0001393 103.3725 256.7423 15.08837390 75013,6917.888,95.438,540.717,538.79,0.0
53723.0,STARLINK-4705,PAYLOAD,2024-01-11 20:42:47,15.0883926,0.0001331,53.2167,190.4563,92.3308,267.7837,6.2707e-05,7.1e-06,0.0,0 STARLINK-4705,1 53723U 22107Z   24011.86305076  .00000710  00000-0  62707-4 0  9999,2 53723  53.2167 190.4563 0001331  92.3308 267.7837 15.08839260 75629,6917.883,95.438,540.668,538.827,0.0
53723.0,STARLINK-4705,PAYLOAD,2024-01-12 11:01:15,15.08838313,0.0001283,53.2166,187.7817,91.1881,268.9258,8.7477e-05,1.105e-05,0.0,0 STARLINK-4705,1 53723U 22107Z   24012.45921214  .00001105  00000-0  87477-4 0  9993,2 53723  53.2166 187.7817 0001283  91.1881 268.9258 15.08838313 75716,6917.886,95.438,540.638,538.863,0.0
53723.0,STARLINK-4705,PAYLOAD,2024-01-12 20:33:34,15.08840618,0.0001324,53.2167,185.9955,88.9606,271.1538,0.00010157,1.329e-05,0.0,0 STARLINK-4705,1 53723U 22107Z   24012.85665146  .00001329  00000-0  10157-3 0  9994,2 53723  53.2167 185.9955 0001324  88.9606 271.1538 15.08840618 75779,6917.878,95.438,540.659,538.828,0.0
53723.0,STARLINK-4705,PAYLOAD,2024-01-13 10:52:03,15.08839192,0.0001353,53.2169,183.3201,94.0671,266.0476,5.1285e-05,5.28e-06,0.0,0 STARLINK-4705,1 53723U 22107Z   24013.45281477  .00000528  00000-0  51285-4 0  9990,2 53723  53.2169 183.3201 0001353  94.0671 266.0476 15.08839192 75868,6917.883,95.438,540.684,538.812,0.0
53723.0,STARLINK-4705,PAYLOAD,2024-01-14 10:42:50,15.08832878,0.0001497,53.217,178.8612,82.6618,277.4545,0.00018588,2.671e-05,0.0,0 STARLINK-4705,1 53723U 22107Z   24014.44641482  .00002671  00000-0  18588-3 0  9995,2 53723  53.2170 178.8612 0001497  82.6618 277.4545 15.08832878 75416,6917.902,95.438,540.803,538.732,0.0
53723.0,STARLINK-4705,PAYLOAD,2024-01-14 17:04:20,15.08910539,0.0001096,53.2168,177.6714,86.0861,274.0256,-0.00086519,-0.00014057,0.0,0 STARLINK-4705,1 53723U 22107Z   24014.71135201 -.00014057  00000-0 -86519-3 0  9994,2 53723  53.2168 177.6714 0001096  86.0861 274.0256 15.08910539 75453,6917.665,95.433,540.288,538.772,0.0
53723.0,STARLINK-4705,PAYLOAD,2024-01-15 16:55:09,15.08844542,0.0001531,53.2165,173.2118,74.244,285.8721,7.9659e-05,9.8e-06,0.0,0 STARLINK-4705,1 53723U 22107Z   24015.70497046  .00000980  00000-0  79659-4 0  9998,2 53723  53.2165 173.2118 0001531  74.2440 285.8721 15.08844542 75600,6917.867,95.437,540.791,538.672,0.0
53723.0,STARLINK-4705,PAYLOAD,2024-01-15 21:41:18,15.08851718,0.000146,53.2166,172.3196,76.3798,283.7357,0.00013184,1.812e-05,0.0,0 STARLINK-4705,1 53723U 22107Z   24015.90368330  .00001812  00000-0  13184-3 0  9998,2 53723  53.2166 172.3196 0001460  76.3798 283.7357 15.08851718 76232,6917.845,95.437,540.72,538.7,0.0
53723.0,STARLINK-4705,PAYLOAD,2024-01-16 10:24:24,15.08834552,0.0001428,53.2162,169.9399,77.2277,282.8875,-1.0556e-05,-4.56e-06,0.0,0 STARLINK-4705,1 53723U 22107Z   24016.43361866 -.00000456  00000-0 -10556-4 0  9990,2 53723  53.2162 169.9399 0001428  77.2277 282.8875 15.08834552 75715,6917.897,95.438,540.75,538.774,0.0
53723.0,STARLINK-4705,PAYLOAD,2024-01-16 13:35:10,15.08835566,0.0001457,53.216,169.3464,84.8336,275.2823,9.1803e-07,-2.73e-06,0.0,0 STARLINK-4705,1 53723U 22107Z   24016.56609786 -.00000273  00000-0  91803-6 0  9992,2 53723  53.2160 169.3464 0001457  84.8336 275.2823 15.08835566 76336,6917.894,95.438,540.767,538.751,0.0
53723.0,STARLINK-4705,PAYLOAD,2024-01-16 18:21:19,15.0884114,0.0001428,53.2165,168.4516,104.0625,256.0526,3.8595e-05,3.26e-06,0.0,0 STARLINK-4705,1 53723U 22107Z   24016.76481245  .00000326  00000-0  38595-4 0  9997,2 53723  53.2165 168.4516 0001428 104.0625 256.0526 15.08841140 75761,6917.877,95.437,540.73,538.754,0.0
53723.0,STARLINK-4705,PAYLOAD,2024-01-17 15:01:20,15.08840531,0.0001324,53.2165,164.5834,89.6339,270.4805,-1.388e-05,-5.09e-06,0.0,0 STARLINK-4705,1 53723U 22107Z   24017.62593705 -.00000509  00000-0 -13880-4 0  9993,2 53723  53.2165 164.5834 0001324  89.6339 270.4805 15.08840531 76490,6917.879,95.438,540.66,538.828,0.0
53723.0,STARLINK-4705,PAYLOAD,2024-01-18 14:52:07,15.0883874,0.0001292,53.2161,160.1244,102.579,257.5346,0.00014012,1.943e-05,0.0,0 STARLINK-4705,1 53723U 22107Z   24018.61953686  .00001943  00000-0  14012-3 0  9999,2 53723  53.2161 160.1244 0001292 102.5790 257.5346 15.08838740 76645,6917.884,95.438,540.643,538.855,0.0
53723.0,STARLINK-4705,PAYLOAD,2024-01-18 16:27:30,15.08843264,0.0001238,53.2164,159.8271,95.8698,264.2436,0.00012786,1.748e-05,0.0,0 STARLINK-4705,1 53723U 22107Z   24018.68577482  .00001748  00000-0  12786-3 0  9991,2 53723  53.2164 159.8271 0001238  95.8698 264.2436 15.08843264 76051,6917.87,95.437,540.592,538.879,0.0
53723.0,STARLINK-4705,PAYLOAD,2024-01-19 14:42:54,15.08845576,0.000122,53.2167,155.6632,89.6646,270.4486,8.7968e-05,1.113e-05,0.0,0 STARLINK-4705,1 53723U 22107Z   24019.61313542  .00001113  00000-0  87968-4 0  9991,2 53723  53.2167 155.6632 0001220  89.6646 270.4486 15.08845576 76797,6917.863,95.437,540.572,538.884,0.0
53723.0,STARLINK-4705,PAYLOAD,2024-01-19 16:18:17,15.08847483,0.0001262,53.2168,155.3654,88.7503,271.3634,9.3295e-05,1.198e-05,0.0,0 STARLINK-4705,1 53723U 22107Z   24019.67937405  .00001198  00000-0  93295-4 0  9990,2 53723  53.2168 155.3654 0001262  88.7503 271.3634 15.08847483 76803,6917.858,95.437,540.596,538.849,0.0
53723.0,STARLINK-4705,PAYLOAD,2024-01-20 14:33:42,15.08838329,0.0001212,53.218,151.2042,95.0046,265.1085,-2.2672e-05,-6.49e-06,0.0,0 STARLINK-4705,1 53723U 22107Z   24020.60674555 -.00000649  00000-0 -22672-4 0  9992,2 53723  53.2180 151.2042 0001212  95.0046 265.1085 15.08838329 76946,6917.885,95.438,540.589,538.912,0.0
53723.0,STARLINK-4705,PAYLOAD,2024-01-20 17:44:28,15.08845452,0.0001179,53.2184,150.6083,95.1144,264.9983,-2.1539e-05,-6.31e-06,0.0,0 STARLINK-4705,1 53723U 22107Z   24020.73922079 -.00000631  00000-0 -21539-4 0  9995,2 53723  53.2184 150.6083 0001179  95.1144 264.9983 15.08845452 76365,6917.864,95.437,540.544,538.913,0.0
